     2.100          NAVIGATION                              RINEX VERSION / TYPE
fic2rin                                 09/12/2013 00:31:25 PGM / RUN BY / DATE
                                                            END OF HEADER
17 13  9 11 12  0  0.0 -.202604569495D-04 -.375166564481D-11  .000000000000D+00
     .950000000000D+02 -.100000000000D+01  .463447875893D-08  .351916357655D+00
     .372529029846D-08  .850376894232D-02  .791624188423D-05  .515367717171D+04
     .302400000000D+06 -.106170773506D-06  .193043216083D+01  .143423676491D-06
     .966089144074D+00  .231812500000D+03 -.219232403919D+01 -.821712799065D-08
     .238938524177D-09  .100000000000D+01  .175700000000D+04  .000000000000D+00
     .340000000000D+01  .000000000000D+00 -.102445483208D-07  .950000000000D+02
     .295206000000D+06  .400000000000D+01
18 13  9 11 12  0  0.0  .273524783552D-03  .204636307899D-11  .000000000000D+00
     .980000000000D+02  .215312500000D+02  .513771400641D-08  .185940577354D+01
     .100582838058D-05  .145957648056D-01  .108443200588D-04  .515363376617D+04
     .302400000000D+06 -.232830643654D-06 -.230188611566D+01 -.357627868652D-06
     .926909453476D+00  .151156250000D+03 -.207864217766D+01 -.828034490960D-08
    -.252867675811D-09  .100000000000D+01  .175700000000D+04  .000000000000D+00
     .340000000000D+01  .000000000000D+00 -.107102096081D-07  .980000000000D+02
     .295206000000D+06  .400000000000D+01
19 13  9 11 12  0  0.0 -.403349753469D-03 -.284217094304D-11  .000000000000D+00
     .400000000000D+02 -.800000000000D+01  .463483591666D-08 -.477199177101D+00
    -.454485416412D-06  .952935940586D-02  .746548175812D-05  .515373744202D+04
     .302400000000D+06  .130385160446D-06  .198208279357D+01  .521540641785D-07
     .963310405791D+00  .236750000000D+03  .377723991000D+00 -.819712715753D-08
     .215008955986D-09  .100000000000D+01  .175700000000D+04  .000000000000D+00
     .240000000000D+01  .000000000000D+00 -.144354999065D-07  .400000000000D+02
     .295206000000D+06  .400000000000D+01
20 13  9 11 12  0  0.0  .121699180454D-03  .261479726760D-11  .000000000000D+00
     .390000000000D+02  .195625000000D+02  .502913805522D-08  .234845393024D+01
     .100024044514D-05  .550980109256D-02  .101067125797D-04  .515368424606D+04
     .302400000000D+06  .763684511185D-07 -.235520996534D+01 -.316649675369D-07
     .927776178310D+00  .165468750000D+03  .128435414637D+01 -.819819863074D-08
    -.172150027883D-09  .100000000000D+01  .175700000000D+04  .000000000000D+00
     .240000000000D+01  .000000000000D+00 -.791624188423D-08  .390000000000D+02
     .295206000000D+06  .400000000000D+01
21 13  9 11 12  0  0.0 -.318142585456D-03 -.193267624127D-11  .000000000000D+00
     .270000000000D+02 -.265312500000D+02  .527664836501D-08  .288211838634D+01
    -.153295695782D-05  .205375541700D-01  .663474202156D-05  .515362818527D+04
     .302400000000D+06  .894069671631D-07  .293474674867D+01 -.230967998505D-06
     .932120497874D+00  .231843750000D+03 -.210644073426D+01 -.805783564120D-08
    -.161792453591D-09  .100000000000D+01  .175700000000D+04  .000000000000D+00
     .240000000000D+01  .000000000000D+00 -.111758708954D-07  .270000000000D+02
     .295206000000D+06  .400000000000D+01
22 13  9 11 12  0  0.0  .184318050742D-03  .193267624127D-11  .000000000000D+00
     .550000000000D+02  .168125000000D+02  .524128974933D-08  .127650838505D+01
     .914558768272D-06  .679511460476D-02  .104270875454D-04  .515365013695D+04
     .302400000000D+06 -.132247805595D-06 -.229948924728D+01 -.614672899246D-07
     .924663558234D+00  .159718750000D+03 -.203205544610D+01 -.841820779500D-08
    -.321084803042D-09  .100000000000D+01  .175700000000D+04  .000000000000D+00
     .240000000000D+01  .000000000000D+00 -.172294676304D-07  .550000000000D+02
     .295206000000D+06  .400000000000D+01
23 13  9 11 12  0  0.0  .491873361170D-04 -.352429196937D-11  .000000000000D+00
     .240000000000D+02  .767812500000D+02  .465340811884D-08 -.916069335839D+00
     .404566526413D-05  .887208699714D-02  .582635402679D-05  .515366406441D+04
     .302400000000D+06  .165775418282D-06 -.124011755759D+01 -.447034835815D-07
     .954295778775D+00  .259812500000D+03 -.282654732333D+01 -.829427406124D-08
     .205008539429D-09  .100000000000D+01  .175700000000D+04  .000000000000D+00
     .240000000000D+01  .000000000000D+00 -.200234353542D-07  .240000000000D+02
     .295206000000D+06  .400000000000D+01
24 13  9 11 12  0  0.0 -.135437585413D-04 -.682121026330D-12  .000000000000D+00
     .400000000000D+02 -.176562500000D+02  .486627412842D-08 -.157235245909D+01
    -.987201929092D-06  .102601957042D-02  .353343784809D-05  .515365834618D+04
     .302400000000D+06 -.223517417908D-07 -.213471588177D+00 -.204890966415D-07
     .958660084726D+00  .310937500000D+03  .216350110639D+00 -.848392481809D-08
    -.664313385605D-10  .100000000000D+01  .175700000000D+04  .000000000000D+00
     .240000000000D+01  .000000000000D+00  .325962901115D-08  .400000000000D+02
     .295206000000D+06  .400000000000D+01
26 13  9 11 12  0  0.0  .184877775609D-03  .181898940355D-10  .000000000000D+00
     .440000000000D+02  .934375000000D+02  .429839333105D-08 -.908164450683D+00
     .526942312717D-05  .210589905037D-01  .589713454247D-05  .515369132423D+04
     .302400000000D+06 -.502914190292D-07 -.115719668664D+01  .400468707085D-06
     .977528745059D+00  .280968750000D+03  .124999172651D+01 -.836427697714D-08
     .200722646618D-09  .100000000000D+01  .175700000000D+04  .000000000000D+00
     .240000000000D+01  .000000000000D+00 -.558793544769D-08  .440000000000D+02
     .295206000000D+06  .400000000000D+01
27 13  9 11 12  0  0.0 -.352151691914D-04 -.454747350886D-11  .000000000000D+00
     .240000000000D+02 -.121562500000D+02  .464555064869D-08 -.488987309541D+00
    -.679865479469D-06  .411512912251D-03  .792741775513D-05  .515366377640D+04
     .302400000000D+06  .558793544769D-08  .188652848100D+01 -.298023223877D-07
     .960682125707D+00  .223593750000D+03  .945607781868D+00 -.808033657845D-08
     .228938107620D-09  .100000000000D+01  .175700000000D+04  .000000000000D+00
     .240000000000D+01  .000000000000D+00  .186264514923D-08  .240000000000D+02
     .295206000000D+06  .400000000000D+01
28 13  9 11 12  0  0.0  .291662290692D-03  .306954461848D-11  .000000000000D+00
     .158000000000D+03 -.561562500000D+02  .404195407790D-08  .114113965538D+01
    -.307150185108D-05  .187349269399D-01  .968202948570D-05  .515365604591D+04
     .302400000000D+06 -.385567545891D-06  .900811534759D+00 -.141561031342D-06
     .984277951265D+00  .212843750000D+03 -.176403795963D+01 -.806069290307D-08
     .928610108910D-11  .100000000000D+01  .175700000000D+04  .000000000000D+00
     .340000000000D+01  .000000000000D+00 -.107102096081D-07  .158000000000D+03
     .295206000000D+06  .400000000000D+01
29 13  9 11 12  0  0.0  .469770748168D-03  .318323145621D-11  .000000000000D+00
     .950000000000D+02 -.143125000000D+02  .445804283824D-08 -.310140050519D+01
    -.767409801483D-06  .148869713303D-02  .840798020363D-05  .515358237839D+04
     .302400000000D+06  .186264514923D-07  .193929684606D+01  .596046447754D-07
     .966758755325D+00  .219843750000D+03 -.989165038306D+00 -.794390232399D-08
     .314298806093D-09  .100000000000D+01  .175700000000D+04  .000000000000D+00
     .340000000000D+01  .000000000000D+00 -.931322574615D-08  .950000000000D+02
     .295206000000D+06  .400000000000D+01
31 13  9 11 12  0  0.0  .325606204569D-03  .909494701773D-12  .000000000000D+00
     .250000000000D+02 -.151250000000D+02  .435839583039D-08 -.243353910071D+01
    -.594183802605D-06  .791163230315D-02  .402703881264D-05  .515366474724D+04
     .302400000000D+06 -.838190317154D-07 -.178183003660D+00  .193715095520D-06
     .980178056053D+00  .313156250000D+03 -.733929917047D+00 -.807212195057D-08
    -.721458623076D-10  .100000000000D+01  .175700000000D+04  .000000000000D+00
     .240000000000D+01  .000000000000D+00 -.130385160446D-07  .250000000000D+02
     .295206000000D+06  .400000000000D+01
32 13  9 11 12  0  0.0 -.549491494894D-03  .261479726760D-11  .000000000000D+00
     .620000000000D+02  .312500000000D+02  .456411868529D-08 -.197027422416D+01
     .159814953804D-05  .116196456365D-01  .108592212200D-04  .515360357094D+04
     .302400000000D+06 -.203028321266D-06 -.221327999689D+01 -.633299350739D-07
     .948785435967D+00  .166000000000D+03 -.300337397664D+00 -.802712007606D-08
    -.414302971667D-10  .100000000000D+01  .175700000000D+04  .000000000000D+00
     .240000000000D+01  .000000000000D+00 -.279396772385D-08  .620000000000D+02
     .295206000000D+06  .400000000000D+01
 7 13  9 11 11 59 44.0  .257425475866D-03  .420641299570D-11  .000000000000D+00
     .160000000000D+02 -.263437500000D+02  .439268297288D-08 -.248139288903D+01
    -.142678618431D-05  .691085366998D-02  .445730984211D-05  .515367191505D+04
     .302384000000D+06 -.372529029846D-07 -.183175577335D+00 -.169500708580D-06
     .975196901917D+00  .305093750000D+03 -.288568010178D+01 -.813355308085D-08
    -.646455498895D-10  .100000000000D+01  .175700000000D+04  .000000000000D+00
     .240000000000D+01  .000000000000D+00 -.107102096081D-07  .160000000000D+02
     .297036000000D+06  .400000000000D+01
18 13  9 11 11 59 44.0  .273525714874D-03  .204636307899D-11  .000000000000D+00
     .100000000000D+01  .215312500000D+02  .513771400641D-08  .185707165264D+01
     .100582838058D-05  .145957651548D-01  .108443200588D-04  .515363377762D+04
     .302384000000D+06 -.232830643654D-06 -.230188598693D+01 -.357627868652D-06
     .926909435921D+00  .151156250000D+03 -.207864196262D+01 -.828034490960D-08
    -.252867675811D-09  .100000000000D+01  .175700000000D+04  .000000000000D+00
     .240000000000D+01  .000000000000D+00 -.107102096081D-07  .100000000000D+01
     .297486000000D+06  .400000000000D+01
